satname,norad_id,inclination_deg,eccentricity,mean_motion_rev_per_day,perigee_km,apogee_km,l1,l2
STARLINK-1132,45044,53.0556,0.0001333,15.06406111,546.2696822005773,548.1159751328996,1 45044U 20006A   25248.67816702  .00005824  00000+0  40950-3 0  9992,2 45044  53.0556  17.1673 0001333  70.8249 289.2884 15.06406111308858
STARLINK-1131,45047,53.0556,0.0001212,15.06400713,546.3700207164584,548.0487246772,1 45047U 20006D   25249.11870085  .00001717  00000+0  13415-3 0  9992,2 45047  53.0556  35.7283 0001212  94.5897 265.5231 15.06400713308633
STARLINK-1134,45048,53.0466,0.0004334,15.22339947,495.80423201355006,501.76514773433246,1 45048U 20006E   25248.63692266  .00029767  00000+0  12831-2 0  9997,2 45048  53.0466  22.9521 0004334 320.1998  39.8679 15.22339947308776
STARLINK-1156,45054,53.0568,0.0001296,15.06390505,546.3431299540089,548.1381878431939,1 45054U 20006L   25248.82376371  .00001077  00000+0  91171-4 0  9991,2 45054  53.0568  36.5162 0001296  87.6103 272.5035 15.06390505308596
STARLINK-1159,45057,53.0556,0.0001391,15.06396269,546.2596753644984,548.186310514534,1 45057U 20006P   25249.10389321  .00000650  00000+0  62542-4 0  9991,2 45057  53.0556  35.2566 0001391  93.5994 266.5154 15.06396269308644
STARLINK-1166,45060,53.0556,0.0001131,15.06415236,546.3816105456244,547.948113826852,1 45060U 20006S   25249.11496438  .00008344  00000+0  57815-3 0  9998,2 45060  53.0556  35.2089 0001131  86.8602 273.2516 15.06415236308644
STARLINK-1169,45061,53.0552,0.0001745,15.0640031,546.002134675522,548.4190809906559,1 45061U 20006T   25249.12232022  .00001193  00000+0  98987-4 0  9998,2 45061  53.0552  35.1709 0001745  84.5497 275.5691 15.06400310308643
STARLINK-1171,45062,53.0574,0.0001485,15.06418938,546.1251106622458,548.1819219455892,1 45062U 20006U   25249.10757957 -.00001601  00000+0 -88548-4 0  9994,2 45062  53.0574  35.2385 0001485  91.5285 268.5874 15.06418938308643
STARLINK-1133,45064,53.0559,0.0001349,15.06399035,546.2802856064263,548.1487454453154,1 45064U 20006W   25249.05413773  .00000635  00000+0  61523-4 0  9993,2 45064  53.0559  15.4760 0001349  89.6638 270.4505 15.06399035308913
STARLINK-1150,45067,53.0466,0.0003795,15.87882207,305.68394793737934,310.7588939788857,1 45067U 20006Z   25249.25002315  .00265984  00000+0  93763-3 0  9994,2 45067  53.0466 329.5172 0003795 297.9538 143.8082 15.87882207  5834
STARLINK-1167,45071,53.0555,0.0001476,15.06398766,546.1931579677503,548.2375219785108,1 45071U 20006AD  25248.74821931  .00007322  00000+0  50992-3 0  9992,2 45071  53.0555  16.8560 0001476  65.8111 294.3033 15.06398766308868
STARLINK-1168,45072,53.0554,0.000124,15.06408615,546.326414382761,548.0438942770352,1 45072U 20006AE  25248.75190037  .00007601  00000+0  52852-3 0  9997,2 45072  53.0554  16.8374 0001240  91.7431 268.3700 15.06408615308860
STARLINK-1172,45074,53.0555,0.0001316,15.06407142,546.2782958337793,548.1010418130136,1 45074U 20006AG  25249.09468403  .00009264  00000+0  63990-3 0  9994,2 45074  53.0555  15.2985 0001316  65.6804 294.4323 15.06407142308913
STARLINK-1153,45080,53.0569,0.0001513,15.06401613,546.1588098411557,548.2544188188513,1 45080U 20006AN  25248.74085448  .00014272  00000+0  97504-3 0  9999,2 45080  53.0569  16.8899 0001513  98.9713 261.1447 15.06401613308862
STARLINK-1151,45081,53.0555,0.0001441,15.06390336,546.2432298694657,548.2391238600376,1 45081U 20006AP  25248.65974896  .00000807  00000+0  73115-4 0  9996,2 45081  53.0555  17.3250 0001441  89.5442 270.5712 15.06390336308857
STARLINK-1190,45083,53.0521,0.0006182,15.70354316,353.7193871763984,362.04780304019005,1 45083U 20006AR  25249.00006944  .00037898  00000+0  30764-3 0  9990,2 45083  53.0521 355.1240 0006182 340.5150  70.5291 15.70354316  5872
STARLINK-1173,45084,53.0491,0.0010166,15.76720371,332.9107238271072,346.5695115828248,1 45084U 20006AS  25249.25002315  .00122200  00000+0  73796-3 0  9990,2 45084  53.0491 318.6516 0010166 313.5703 251.3257 15.76720371  5819
STARLINK-1179,45085,53.0437,0.0006189,15.86933339,306.74661519319125,315.0262884218391,1 45085U 20006AT  25249.25002315  .00233145  00000+0  86405-3 0  9993,2 45085  53.0437 310.5303 0006189 319.6250 319.7549 15.86933339  5936
STARLINK-1185,45087,53.0544,0.0001227,15.06393555,546.3815683136936,548.081053697214,1 45087U 20006AV  25249.29924893 -.00002299  00000+0 -13555-3 0  9995,2 45087  53.0544 354.3789 0001227  74.1307 285.9817 15.06393555309239
STARLINK-1183,45088,53.0557,7.84e-05,15.06414953,546.6227857919985,547.7086732599892,1 45088U 20006AW  25249.25501499  .00008520  00000+0  58990-3 0  9998,2 45088  53.0557 354.5777 0000784  98.0227 262.0851 15.06414953309225
STARLINK-1176,45090,53.0508,0.0005856,15.74430715,342.3138341259046,350.18943809651773,1 45090U 20006AY  25249.25002315  .00135087  00000+0  90167-3 0  9995,2 45090  53.0508 316.1072 0005856 287.6229 202.2797 15.74430715  5967
STARLINK-1142,45093,53.041,0.0005926,15.48040134,418.4298286019757,426.4898960031778,1 45093U 20006BB  25248.88037098  .00088588  00000+0  16536-2 0  9992,2 45093  53.0410 308.2890 0005926   4.3999 355.7059 15.48040134309840
STARLINK-1146,45094,53.0554,0.0006769,15.8748302,304.8155162375897,313.8690256746104,1 45094U 20006BC  25249.25002315  .00264518  00000+0  95025-3 0  9999,2 45094  53.0554 311.6984 0006769 313.2695 245.3724 15.87483020  5993
STARLINK-1147,45095,53.0453,0.0009541,15.85676878,308.03412273563845,320.8048590315411,1 45095U 20006BD  25249.25002315  .00159244  00000+0  63237-3 0  9999,2 45095  53.0453 314.2046 0009541 322.9610  11.7912 15.85676878  6049
STARLINK-1152,45096,53.0541,0.0004274,15.20054479,502.73398910841115,508.61827257265304,1 45096U 20006BE  25249.29689546  .00017175  00000+0  79905-3 0  9996,2 45096  53.0541 342.6182 0004274   9.8332 350.2745 15.20054479309399
STARLINK-1184,45098,53.0553,0.0001053,15.0639756,546.489796206336,547.9482761875579,1 45098U 20006BG  25248.60629740  .00003221  00000+0  23501-3 0  9990,2 45098  53.0553 357.4884 0001053  91.0046 269.1064 15.06397560309122
STARLINK-1193,45100,53.0572,0.0001395,15.06417299,546.1924607744022,548.1246182299219,1 45100U 20006BJ  25249.00067392  .00000406  00000+0  46106-4 0  9997,2 45100  53.0572 355.7204 0001395  88.6313 271.4836 15.06417299309183
STARLINK-1143,45179,53.0567,0.0004812,15.31658827,467.5669938742594,474.15847121686147,1 45179U 20012B   25248.95050611  .00068483  00000+0  22005-2 0  9998,2 45179  53.0567 131.2148 0004812  96.5608 263.5940 15.31658827307345
STARLINK-1200,45181,53.0395,0.0005017,16.13220852,234.70302381456986,241.3416781073256,1 45181U 20012D   25248.32687897  .00990429  62219-3  83003-3 0  9998,2 45181  53.0395 110.3219 0005017 264.1024  95.9439 16.13220852307576
STARLINK-1201,45182,53.0382,0.000287,15.97079744,280.6140752166839,284.4372955981071,1 45182U 20012E   25249.25002315  .00344989  59395-4  78059-3 0  9999,2 45182  53.0382  86.2864 0002870  90.5550 103.0786 15.97079744  6068
STARLINK-1202,45183,53.0555,0.0001467,15.06403201,546.185800157441,548.2176945459141,1 45183U 20012F   25249.06334957  .00002490  00000+0  18599-3 0  9994,2 45183  53.0555 155.4408 0001467  93.6154 266.5003 15.06403201307014
STARLINK-1216,45185,53.053,9.14e-05,15.06446521,546.4360176160535,547.7019452694612,1 45185U 20012H   25248.98963248  .00022451  00000+0  15194-2 0  9993,2 45185  53.0530 155.7703 0000914 120.4059 239.7020 15.06446521306943
STARLINK-1224,45186,53.0377,0.0003518,15.99383056,273.78838607993293,278.4703278887073,1 45186U 20012J   25249.25002315  .00360873  65809-4  71724-3 0  9992,2 45186  53.0377 107.5110 0003518  86.4821  69.9987 15.99383056  5969
STARLINK-1225,45187,53.0534,0.0001518,15.06399647,546.16137175732,548.2639079079745,1 45187U 20012K   25249.14075413  .00002476  00000+0  18509-3 0  9991,2 45187  53.0534 155.0927 0001518  85.2886 274.8276 15.06399647307015
STARLINK-1228,45188,53.0336,0.0005163,16.06276292,253.65236949941573,260.5038926437601,1 45188U 20012L   25248.34024567  .00651435  22146-3  85656-3 0  9998,2 45188  53.0336  49.5810 0005163 332.9230  27.1532 16.06276292308374
STARLINK-1230,45189,53.0565,0.0001486,15.06400514,546.1808760411404,548.23908916437,1 45189U 20012M   25249.14443954  .00001819  00000+0  14095-3 0  9998,2 45189  53.0565 155.0745 0001486 103.4847 256.6308 15.06400514304245
STARLINK-1234,45190,53.0531,0.0001231,15.06369252,546.4532757243396,548.158319741141,1 45190U 20012N   25248.89750331  .00006174  00000+0  43339-3 0  9993,2 45190  53.0531 116.1833 0001231  83.2979 276.8150 15.06369252307442
STARLINK-1237,45192,53.0477,0.0001176,16.04742393,260.5248560611162,262.086452973459,1 45192U 20012Q   25248.29511272  .00572392  16653-3  82866-3 0  9991,2 45192  53.0477 111.2591 0001176 159.0248 201.0832 16.04742393307569
STARLINK-1240,45194,53.0393,0.0006286,15.9163389,293.5137879435015,301.9066630754123,1 45194U 20012S   25249.25002315  .00261984  36730-4  79415-3 0  9990,2 45194  53.0393 108.0598 0006286  84.0081 300.5056 15.91633890  5955
STARLINK-1244,45196,53.0381,0.0003487,15.96224898,282.5801155117033,287.2269199687753,1 45196U 20012U   25249.25002315  .00302816  47674-4  71885-3 0  9994,2 45196  53.0381 107.8315 0003487  90.9631 115.3601 15.96224898  6010
STARLINK-1269,45197,53.0553,0.0001548,15.06440962,546.0139936294017,548.1580426758228,1 45197U 20012V   25249.15547884  .00016938  00000+0  11520-2 0  9992,2 45197  53.0553 155.0278 0001548  83.7623 276.3542 15.06440962306997
STARLINK-1154,45198,53.0555,0.000139,15.06397476,546.2566691207385,548.1819181703713,1 45198U 20012W   25249.01359848  .00001829  00000+0  14163-3 0  9999,2 45198  53.0555 135.6650 0001390  83.8552 276.2595 15.06397476307220
STARLINK-1199,45201,53.054,0.0001346,15.06392791,546.3014976832683,548.1658074629404,1 45201U 20012Z   25248.95831240  .00007707  00000+0  53584-3 0  9998,2 45201  53.0540 135.9115 0001346  93.0245 267.0898 15.06392791307275
